STARLINK-5809           
1 55775U 23028AL  24098.36837005 -.00002166  00000+0 -17381-3 0  9998
2 55775  70.0009 192.6697 0002797 273.0853  86.9986 14.98330592 61489
STARLINK-5810           
1 55776U 23028AM  24098.94833241 -.00002707  00000+0 -21910-3 0  9995
2 55776  70.0012 191.0801 0003048 272.7781  87.3029 14.98338840 61577
STARLINK-5814           
1 55777U 23028AN  24098.42677780 -.00001044  00000+0 -79703-4 0  9990
2 55777  70.0008 192.4713 0002897 270.8328  89.2499 14.98326214 61492
STARLINK-5816           
1 55778U 23028AP  24099.22371981  .00000834  00000+0  77654-4 0  9991
2 55778  70.0001 190.4363 0003154 274.4838  85.5960 14.98328725 61613
STARLINK-5817           
1 55779U 23028AQ  24098.45991778 -.00000814  00000+0 -60420-4 0  9991
2 55779  70.0009 172.3086 0002953 266.8493  93.2328 14.98329245 61994
STARLINK-5819           
1 55780U 23028AR  24099.21954640  .00000757  00000+0  71234-4 0  9994
2 55780  70.0000 190.4205 0003360 276.6438  83.4339 14.98328790 61618
STARLINK-5820           
1 55781U 23028AS  24098.52991408 -.00002255  00000+0 -17745-3 0  9994
2 55781  70.0005 192.4584 0002891 269.6599  90.4229 14.99134634 61501
STARLINK-5826           
1 55782U 23028AT  24099.19029489  .00000852  00000+0  79228-4 0  9994
2 55782  70.0000 170.8491 0002954 270.4113  89.6708 14.98330454 62090
STARLINK-5825           
1 55783U 23028AU  24098.92308771 -.00001122  00000+0 -86214-4 0  9995
2 55783  70.0003 171.5207 0002952 273.5396  86.5425 14.98333426 62052
STARLINK-5797           
1 55784U 23028AV  24098.90655785 -.00003261  00000+0 -26559-3 0  9995
2 55784  70.0006 171.4642 0002891 260.4263  99.6570 14.98340455 62054
STARLINK-5818           
1 55785U 23028AW  24099.18595295  .00000217  00000+0  25953-4 0  9990
2 55785  70.0004 170.8329 0002983 270.8750  89.2067 14.98331875 62081
STARLINK-5823           
1 55786U 23028AX  24098.90639984 -.00000868  00000+0 -65009-4 0  9994
2 55786  70.0012 171.4642 0002819 265.9685  94.1152 14.98325423 62055
STARLINK-5811           
1 55787U 23028AY  24098.91474161 -.00000925  00000+0 -69744-4 0  9994
2 55787  70.0000 171.4909 0003033 271.4035  88.6777 14.98334462 62053
STARLINK-5804           
1 55788U 23028AZ  24099.17760676  .00000237  00000+0  27671-4 0  9990
2 55788  70.0000 170.8036 0003030 268.4235  91.6577 14.98328312 62085
STARLINK-5815           
1 55789U 23028BA  24098.48496691 -.00001086  00000+0 -83207-4 0  9999
2 55789  69.9999 172.3982 0003134 268.8987  91.1813 14.98327651 61992
STARLINK-5813           
1 55790U 23028BB  24098.62282427 -.00001156  00000+0 -89095-4 0  9996
2 55790  70.0000 172.0781 0003072 270.4431  89.6376 14.98329468 62016
STARLINK-5807           
1 55791U 23028BC  24098.90221817 -.00000553  00000+0 -38584-4 0  9991
2 55791  70.0007 171.4488 0002843 270.2395  89.8438 14.98330581 62056
STARLINK-5856           
1 55914U 23037A   24098.91173303 -.00000670  00000+0 -48377-4 0  9996
2 55914  69.9984 271.5156 0003131 271.0825  88.9975 14.98329014 59204
STARLINK-5859           
1 55915U 23037B   24098.89503336 -.00000488  00000+0 -33106-4 0  9998
2 55915  69.9982 271.4562 0003003 269.2673  90.8142 14.98330203 58851
STARLINK-5796           
1 55916U 23037C   24099.17459583  .00000389  00000+0  40424-4 0  9994
2 55916  69.9988 270.8272 0003068 271.1195  88.9613 14.98330920 58892
STARLINK-5855           
1 55917U 23037D   24098.86461796  .00010520  00000+0  69560-3 0  9998
2 55917  69.9987 266.9826 0003988 234.9436 125.1354 15.07587853 58626
STARLINK-5867           
1 55918U 23037E   24099.17042173  .00000314  00000+0  34150-4 0  9996
2 55918  69.9987 270.8123 0003064 270.8189  89.2619 14.98331606 58895
STARLINK-5871           
1 55919U 23037F   24098.89519812 -.00000917  00000+0 -69025-4 0  9994
2 55919  69.9982 271.4565 0003028 271.5691  88.5121 14.98334414 58850
STARLINK-5862           
1 55920U 23037G   24099.16602590  .00000581  00000+0  56470-4 0  9998
2 55920  70.0002 250.9189 0002873 273.7421  86.3409 14.98325502 59386
STARLINK-5861           
1 55921U 23037H   24099.21214245 -.00000298  00000+0 -17180-4 0  9993
2 55921  69.9986 270.5566 0003134 279.5106  80.5699 14.98337210 58900
STARLINK-5863           
1 55922U 23037J   24098.88251145 -.00000378  00000+0 -23877-4 0  9995
2 55922  69.9984 271.4120 0003020 268.7652  91.3161 14.98329934 58510
STARLINK-5854           
1 55923U 23037K   24098.88668090  .00000008  00000+0  84261-5 0  9990
2 55923  69.9981 271.4268 0003078 270.7022  89.3784 14.98333350 58513
STARLINK-5849           
1 55924U 23037L   24099.16184851 -.00019822  00000+0 -16551-2 0  9991
2 55924  70.0037 250.9023 0002879 257.4779 102.6059 14.98402209 59389
STARLINK-5922           
1 55925U 23037M   24099.20793926  .00003236  00000+0  27872-3 0  9995
2 55925  70.0019 270.5404 0003259 268.7029  91.3756 14.98350907 58909
STARLINK-5921           
1 55926U 23037N   24098.68618188 -.00000441  00000+0 -29204-4 0  9992
2 55926  70.0000 252.0537 0002896 270.5290  89.5537 14.98328946 58970
STARLINK-5919           
1 55927U 23037P   24099.25002315  .00030610  00000+0  25634-2 0  9996
2 55927  69.9996 270.3858 0002923 267.9235   3.1097 14.98308293 58911
STARLINK-5930           
1 55928U 23037Q   24098.86164224 -.00000147  00000+0 -45538-5 0  9993
2 55928  69.9987 271.3383 0003178 271.2452  88.8343 14.98327238 58518
STARLINK-5898           
1 55929U 23037R   24098.93426243 -.00245014  00000+0 -22342-1 0  9992
2 55929  69.9981 271.1899 0004835 199.2112 160.8865 14.96383922 58864
STARLINK-5896           
1 55930U 23037S   24099.12428378 -.00000592  00000+0 -41809-4 0  9999
2 55930  70.0001 250.7750 0002910 270.1667  89.9158 14.98330848 59382
STARLINK-5897           
1 55931U 23037T   24099.19126562 -.00000522  00000+0 -35982-4 0  9995
2 55931  69.9992 270.4823 0002921 269.5198  90.5626 14.98329313 58902
STARLINK-5848           
1 55932U 23037U   24098.81527372 -.00000181  00000+0 -73614-5 0  9994
2 55932  70.0027 231.4183 0002910 272.0541  88.0285 14.98331842 59498
STARLINK-5852           
1 55933U 23037V   24098.68201221 -.00000867  00000+0 -64923-4 0  9995
2 55933  69.9999 252.0406 0002879 269.7846  90.2983 14.98327473 58973
STARLINK-5927           
1 55934U 23037W   24098.85741065 -.00000552  00000+0 -38449-4 0  9995
2 55934  69.9990 251.4451 0003226 271.0367  89.0422 14.98327264 59006
STARLINK-5920           
1 55935U 23037X   24099.14515555  .00000414  00000+0  42498-4 0  9996
2 55935  69.9999 250.8455 0002935 269.3710  90.7113 14.98324433 59383
STARLINK-5882           
1 55936U 23037Y   24099.08648206 -.00009114  00000+0 -75622-3 0  9992
2 55936  70.0026 230.7600 0002927 276.6552  83.4273 14.98370664 59870
STARLINK-5913           
1 55937U 23037Z   24098.67365787 -.00000863  00000+0 -64542-4 0  9999
2 55937  70.0040 252.0100 0002842 272.8153  87.2681 14.98324275 58972
STARLINK-5909           
1 55938U 23037AA  24099.13680265 -.00004963  00000+0 -40827-3 0  9997
2 55938  70.0013 250.8153 0003009 272.4323  87.6492 14.98346623 59389
STARLINK-5918           
1 55939U 23037AB  24098.39409797 -.00001715  00000+0 -13593-3 0  9996
2 55939  69.9997 252.6379 0002801 274.7022  85.3818 14.98333279 58938
STARLINK-5864           
1 55940U 23037AC  24099.13263246 -.00000451  00000+0 -29998-4 0  9991
2 55940  70.0001 250.8021 0002869 267.6674  92.4157 14.98327426 59383
STARLINK-5914           
1 55941U 23037AD  24098.69035757 -.00000804  00000+0 -59623-4 0  9996
2 55941  69.9998 252.0685 0002847 268.2897  91.7936 14.98328222 58972
STARLINK-5917           
1 55942U 23037AE  24098.70702472 -.00000675  00000+0 -48792-4 0  9995
2 55942  69.9991 251.7225 0003178 272.5411  87.5384 14.98332987 58984
STARLINK-5932           
1 55943U 23037AF  24099.11594427 -.00000134  00000+0 -34644-5 0  9993
2 55943  69.9993 250.7415 0003177 269.9527  90.1268 14.98327468 59388
STARLINK-5926           
1 55944U 23037AG  24098.71120442 -.00001055  00000+0 -80613-4 0  9990
2 55944  69.9989 251.7369 0002963 267.8250  92.2569 14.98325541 58987
STARLINK-5925           
1 55945U 23037AH  24099.12029454 -.00002572  00000+0 -20795-3 0  9997
2 55945  69.9996 250.7579 0003706 272.2264  87.8470 14.98308978 59380
STARLINK-5857           
1 55946U 23037AJ  24098.85307132 -.00000596  00000+0 -42177-4 0  9992
2 55946  69.9995 251.4296 0003543 267.9558  92.1196 14.98335766 59008
STARLINK-5851           
1 55947U 23037AK  24098.70301536 -.00000158  00000+0 -54502-5 0  9999
2 55947  69.9994 251.7082 0002996 269.4816  90.6000 14.98331879 58983
STARLINK-5900           
1 55948U 23037AL  24099.06998872  .00004210  00000+0  36044-3 0  9995
2 55948  70.0002 231.1047 0003134 266.5860  93.4940 14.98326871 59860
STARLINK-5899           
1 55949U 23037AM  24099.07399636 -.00000494  00000+0 -33648-4 0  9990
2 55949  70.0008 231.1206 0002873 271.2656  88.8174 14.98330036 59864
STARLINK-5911           
1 55950U 23037AN  24099.06147528 -.00001000  00000+0 -76016-4 0  9992
2 55950  70.0015 231.0751 0002788 272.0909  87.9931 14.98329252 59862
STARLINK-5908           
1 55951U 23037AP  24099.17016927 -.00000684  00000+0 -49513-4 0  9992
2 55951  69.9982 250.5289 0003221 270.3579  89.7211 14.98333457 59393
STARLINK-5893           
1 55952U 23037AQ  24099.06582033 -.00007982  00000+0 -66160-3 0  9991
2 55952  70.0022 231.0923 0002887 274.4296  85.6534 14.98350481 59860
STARLINK-5889           
1 55953U 23037AR  24098.81112891 -.00000554  00000+0 -38664-4 0  9992
2 55953  70.0007 231.8078 0003023 272.1395  87.9418 14.98332626 59486
STARLINK-5892           
1 55954U 23037AS  24098.63586995 -.00001177  00000+0 -90869-4 0  9990
2 55954  70.0007 231.9973 0002953 269.0280  91.0541 14.98329349 59460
STARLINK-5878           
1 55955U 23037AT  24098.65256564 -.00000608  00000+0 -43148-4 0  9995
2 55955  70.0008 232.0549 0002909 270.7284  89.3542 14.98327604 59460
